STARLINK-33618          
1 63374U 25063M   26157.26825815  .00034567  00000+0  10290-2 0  9995
2 63374  53.1606 358.0084 0000955  85.9221 274.1891 15.34414206 68365
STARLINK-33621          
1 63375U 25063N   26157.27457196  .00033180  00000+0  98887-3 0  9999
2 63375  53.1605 358.0531 0001188  76.6585 283.4550 15.34397652 68316
STARLINK-33539          
1 63376U 25063P   26157.29592508  .00037408  00000+0  12679-2 0  9990
2 63376  53.1595  10.9485 0001195  76.2853 283.8280 15.30222018 68132
STARLINK-33634          
1 63377U 25063Q   26157.85534965  .00032531  00000+0  11045-2 0  9994
2 63377  53.1598 358.1141 0001732  82.2273 277.8925 15.30234398 68416
STARLINK-33640          
1 63378U 25063R   26157.27278945  .00030108  00000+0  10248-2 0  9996
2 63378  53.1630   0.8757 0001223  86.5074 273.6067 15.30191470 68323
STARLINK-33636          
1 63379U 25063S   26156.85575338  .00046017  00000+0  12327-2 0  9992
2 63379  53.1601   1.8440 0001156  37.4124 322.6960 15.37579665 68227
STARLINK-33653          
1 63380U 25063T   26157.28334353  .00019079  00000+0  65409-3 0  9990
2 63380  53.1625   0.9410 0001281  81.2978 278.8167 15.30226366 68271
STARLINK-33643          
1 63381U 25063U   26157.27807711  .00028234  00000+0  96139-3 0  9990
2 63381  53.1603   0.9125 0001211  90.9496 269.1643 15.30213210 68328
STARLINK-33748          
1 63383U 25063W   26156.89359919  .00043403  00000+0  14680-2 0  9996
2 63383  53.1577  13.4277 0000720  95.4434 264.6649 15.30221819 68110
STARLINK-33658          
1 63384U 25063X   26157.83335647  .00007533  00000+0  23416-3 0  9996
2 63384  53.1591 355.7807 0000994  78.0844 316.0156 15.34358204  5897
STARLINK-33616          
1 63385U 25063Y   26156.89148757  .00036653  00000+0  12428-2 0  9991
2 63385  53.1586  13.4224 0001082  98.0870 262.0253 15.30219330 68061
STARLINK-33571          
1 63386U 25063Z   26157.29358921  .00054854  00000+0  16209-2 0  9997
2 63386  53.1593  10.2223 0001233  84.7993 275.3151 15.34435890 68148
STARLINK-33533          
1 63387U 25063AA  26157.83335647  .00014272  00000+0  43302-3 0  9993
2 63387  53.1602 355.7375 0001249 118.1714 299.0985 15.34378451  5895
STARLINK-33629          
1 63388U 25063AB  26157.81669352  .00050236  00000+0  14855-2 0  9995
2 63388  53.1607 355.7423 0002229  95.7943 264.3314 15.34452818 68449
STARLINK-33656          
1 63389U 25063AC  26156.85541366  .00046231  00000+0  14901-2 0  9995
2 63389  53.1589   2.5399 0001189  35.0040 325.1039 15.31747947 68264
LEMUR-2-BALTO           
1 63395U 25052BH  26157.44688842  .00007281  00000+0  59017-3 0  9997
2 63395  97.6877  51.1835 0006507  84.6270 275.5696 14.99969570 67158
TJS-16                  
1 63397U 25064A   26157.78158219 -.00000091  00000+0  00000+0 0  9996
2 63397   1.0705  81.5166 0003657 293.1533 322.4972  1.00272320  4287
STARLINK-33531          
1 63399U 25065A   26157.76409683  .00025537  00000+0  93334-3 0  9998
2 63399  43.0029 323.9600 0001301 268.0951  91.9752 15.27614615 66462
STARLINK-33652          
1 63400U 25065B   26157.73839977  .00029043  00000+0  10594-2 0  9993
2 63400  43.0017 323.7589 0002399 268.4601  91.5976 15.27621206 66468
STARLINK-33707          
1 63401U 25065C   26157.76024560  .00022364  00000+0  81884-3 0  9991
2 63401  43.0090 323.9304 0000718 293.4792  66.5985 15.27616450 66466
STARLINK-33668          
1 63402U 25065D   26157.18976186  .00024581  00000+0  89959-3 0  9992
2 63402  43.0053 327.3874 0004900 266.8853  93.1438 15.27579357 66378
STARLINK-33676          
1 63403U 25065E   26157.75896237  .00033349  00000+0  12146-2 0  9999
2 63403  43.0023 323.9165 0000975 284.6875  75.3868 15.27615211 66460
STARLINK-33711          
1 63404U 25065F   26157.73710630  .00025882  00000+0  94536-3 0  9997
2 63404  43.0019 323.7548 0002216 254.6453 105.4154 15.27628081 66460
STARLINK-33708          
1 63405U 25065G   26157.76281292  .00023135  00000+0  84683-3 0  9999
2 63405  43.0025 323.9440 0001258 269.0365  91.0343 15.27609065 66469
STARLINK-33690          
1 63406U 25065H   26157.73245968  .00023852  00000+0  87243-3 0  9998
2 63406  43.0018 320.2624 0001275 277.0607  83.0100 15.27619345 66502
STARLINK-33694          
1 63407U 25065J   26157.75511240  .00020698  00000+0  75971-3 0  9990
2 63407  43.0041 323.8805 0002049 258.2796 101.7826 15.27572662 66467
STARLINK-33692          
1 63408U 25065K   26157.20984824  .00030149  00000+0  11001-2 0  9998
2 63408  43.0010 330.9889 0000321 297.6920  62.3899 15.27597125 66331
STARLINK-33693          
1 63409U 25065L   26157.77309257  .00022916  00000+0  83869-3 0  9997
2 63409  43.0015 324.0156 0000653 273.6048  86.4729 15.27619627 66466
STARLINK-33677          
1 63410U 25065M   26157.17690759  .00025336  00000+0  92620-3 0  9997
2 63410  43.0028 327.2803 0002312 266.9184  93.1403 15.27609387 66372
STARLINK-33647          
1 63411U 25065N   26157.74785904  .00021588  00000+0  79103-3 0  9994
2 63411  43.0041 331.6179 0002286 279.2616  80.7977 15.27606968 66370
