OBJECT_NAME,OBJECT_ID,EPOCH,MEAN_MOTION,ECCENTRICITY,INCLINATION,RA_OF_ASC_NODE,ARG_OF_PERICENTER,MEAN_ANOMALY,EPHEMERIS_TYPE,CLASSIFICATION_TYPE,NORAD_CAT_ID,ELEMENT_SET_NO,REV_AT_EPOCH,BSTAR,MEAN_MOTION_DOT,MEAN_MOTION_DDOT
STARLINK-33618,2025-063M,2026-06-06T06:26:17.504160,15.34414206,.0000955,53.1606,358.0084,85.9221,274.1891,0,U,63374,999,6836,.10290289E-2,.34567E-3,0
STARLINK-33621,2025-063N,2026-06-06T06:35:23.017344,15.34397652,.00011888,53.1605,358.0531,76.6585,283.4550,0,U,63375,999,6831,.98887389E-3,.3318E-3,0
STARLINK-33539,2025-063P,2026-06-06T07:06:07.926912,15.30222018,.00011958,53.1595,10.9485,76.2853,283.8280,0,U,63376,999,6813,.1267942E-2,.37408E-3,0
STARLINK-33634,2025-063Q,2026-06-06T20:31:42.209760,15.30234398,.0001732,53.1598,358.1141,82.2273,277.8925,0,U,63377,999,6841,.11045E-2,.32531E-3,0
STARLINK-33640,2025-063R,2026-06-06T06:32:49.008480,15.30191470,.00012232,53.1630,0.8757,86.5074,273.6067,0,U,63378,999,6832,.10248281E-2,.30108E-3,0
STARLINK-33636,2025-063S,2026-06-05T20:32:17.092032,15.37579665,.00011568,53.1601,1.8440,37.4124,322.6960,0,U,63379,999,6822,.12326955E-2,.46017E-3,0
STARLINK-33653,2025-063T,2026-06-06T06:48:00.880992,15.30226366,.00012814,53.1625,0.9410,81.2978,278.8167,0,U,63380,999,6827,.65408928E-3,.19079E-3,0
STARLINK-33643,2025-063U,2026-06-06T06:40:25.862304,15.30213210,.00012112,53.1603,0.9125,90.9496,269.1643,0,U,63381,999,6832,.96139338E-3,.28234E-3,0
STARLINK-33748,2025-063W,2026-06-05T21:26:46.970016,15.30221819,.000072,53.1577,13.4277,95.4434,264.6649,0,U,63383,999,6811,.1468E-2,.43403E-3,0
STARLINK-33658,2025-063X,2026-06-06T20:00:01.999008,15.34358204,.0000994,53.1591,355.7807,78.0844,316.0156,0,U,63384,999,589,.23416E-3,.7533E-4,0
STARLINK-33616,2025-063Y,2026-06-05T21:23:44.526048,15.30219330,.0001082,53.1586,13.4224,98.0870,262.0253,0,U,63385,999,6806,.12428E-2,.36653E-3,0
STARLINK-33571,2025-063Z,2026-06-06T07:02:46.107744,15.34435890,.00012331,53.1593,10.2223,84.7993,275.3151,0,U,63386,999,6814,.16209448E-2,.54854E-3,0
STARLINK-33533,2025-063AA,2026-06-06T20:00:01.999008,15.34378451,.0001249,53.1602,355.7375,118.1714,299.0985,0,U,63387,999,589,.43302E-3,.14272E-3,0
STARLINK-33629,2025-063AB,2026-06-06T19:36:02.320128,15.34452818,.0002229,53.1607,355.7423,95.7943,264.3314,0,U,63388,999,6844,.14855E-2,.50236E-3,0
STARLINK-33656,2025-063AC,2026-06-05T20:31:47.740224,15.31747947,.00011898,53.1589,2.5399,35.0040,325.1039,0,U,63389,999,6826,.14901108E-2,.46231E-3,0
LEMUR-2-BALTO,2025-052BH,2026-06-06T10:43:31.159488,14.99969570,.00065073,97.6877,51.1835,84.6270,275.5696,0,U,63395,999,6715,.59016671E-3,.7281E-4,0
TJS-16,2025-064A,2026-06-06T18:45:28.701216,1.00272320,.0003657,1.0705,81.5166,293.1533,322.4972,0,U,63397,999,428,0,-.91E-6,0
STARLINK-33531,2025-065A,2026-06-06T18:20:17.966112,15.27614615,.0001301,43.0029,323.9600,268.0951,91.9752,0,U,63399,999,6646,.93334E-3,.25537E-3,0
STARLINK-33652,2025-065B,2026-06-06T17:43:17.740128,15.27621206,.0002399,43.0017,323.7589,268.4601,91.5976,0,U,63400,999,6646,.10594E-2,.29043E-3,0
STARLINK-33707,2025-065C,2026-06-06T18:14:45.219840,15.27616450,.0000718,43.0090,323.9304,293.4792,66.5985,0,U,63401,999,6646,.81884E-3,.22364E-3,0
STARLINK-33668,2025-065D,2026-06-06T04:33:15.424704,15.27579357,.00049009,43.0053,327.3874,266.8853,93.1438,0,U,63402,999,6637,.89958727E-3,.24581E-3,0
STARLINK-33676,2025-065E,2026-06-06T18:12:54.348768,15.27615211,.0000975,43.0023,323.9165,284.6875,75.3868,0,U,63403,999,6646,.12146E-2,.33349E-3,0
STARLINK-33711,2025-065F,2026-06-06T17:41:25.984320,15.27628081,.0002216,43.0019,323.7548,254.6453,105.4154,0,U,63404,999,6646,.94536E-3,.25882E-3,0
STARLINK-33708,2025-065G,2026-06-06T18:18:27.036288,15.27609065,.0001258,43.0025,323.9440,269.0365,91.0343,0,U,63405,999,6646,.84683E-3,.23135E-3,0
STARLINK-33690,2025-065H,2026-06-06T17:34:44.516352,15.27619345,.0001275,43.0018,320.2624,277.0607,83.0100,0,U,63406,999,6650,.87243E-3,.23852E-3,0
STARLINK-33694,2025-065J,2026-06-06T18:07:21.711360,15.27572662,.0002049,43.0041,323.8805,258.2796,101.7826,0,U,63407,999,6646,.75971E-3,.20698E-3,0
STARLINK-33692,2025-065K,2026-06-06T05:02:10.887936,15.27597125,.00003215,43.0010,330.9889,297.6920,62.3899,0,U,63408,999,6633,.11000769E-2,.30149E-3,0
STARLINK-33693,2025-065L,2026-06-06T18:33:15.198048,15.27619627,.0000653,43.0015,324.0156,273.6048,86.4729,0,U,63409,999,6646,.83869E-3,.22916E-3,0
STARLINK-33677,2025-065M,2026-06-06T04:14:44.815776,15.27609387,.00023124,43.0028,327.2803,266.9184,93.1403,0,U,63410,999,6637,.92619682E-3,.25336E-3,0
STARLINK-33647,2025-065N,2026-06-06T17:56:55.021056,15.27606968,.0002286,43.0041,331.6179,279.2616,80.7977,0,U,63411,999,6637,.79103E-3,.21588E-3,0
